NORAD_CAT_ID,OBJECT_NAME,OBJECT_TYPE,EPOCH,MEAN_MOTION,ECCENTRICITY,INCLINATION,RA_OF_ASC_NODE,ARG_OF_PERICENTER,MEAN_ANOMALY,BSTAR,MEAN_MOTION_DOT,MEAN_MOTION_DDOT,TLE_LINE0,TLE_LINE1,TLE_LINE2,SEMIMAJOR_AXIS,PERIOD,APOGEE,PERIGEE,DECAYED
51965.0,STARLINK-3696,PAYLOAD,2023-10-22 10:00:17,15.0475816,0.0001805,53.0569,335.0241,98.4562,261.6631,0.00030727,4.105e-05,0.0,0 STARLINK-3696,1 51965U 22025K   23295.41686399  .00004105  00000-0  30727-3 0  9996,2 51965  53.0569 335.0241 0001805  98.4562 261.6631 15.04758160 89876,6930.385,95.696,553.501,550.999,0.0
51965.0,STARLINK-3696,PAYLOAD,2023-10-22 19:34:08,15.04764021,0.0001637,53.0567,333.2401,105.5092,254.6077,3.4836e-05,2.19e-06,0.0,0 STARLINK-3696,1 51965U 22025K   23295.81537684  .00000219  00000-0  34836-4 0  9990,2 51965  53.0567 333.2401 0001637 105.5092 254.6077 15.04764021 89939,6930.367,95.696,553.367,551.098,0.0
51965.0,STARLINK-3696,PAYLOAD,2023-10-23 09:54:56,15.04757585,0.0001528,53.0558,330.5619,96.8991,263.2171,-1.7587e-05,-5.28e-06,0.0,0 STARLINK-3696,1 51965U 22025K   23296.41315520 -.00000528  00000-0 -17587-4 0  9999,2 51965  53.0558 330.5619 0001528  96.8991 263.2171 15.04757585 91110,6930.387,95.696,553.311,551.193,0.0
51965.0,STARLINK-3696,PAYLOAD,2023-10-23 19:28:47,15.04769779,0.0001731,53.0575,328.7752,93.2989,266.8197,-4.7168e-05,-9.5e-06,0.0,0 STARLINK-3696,1 51965U 22025K   23296.81166177 -.00000950  00000-0 -47168-4 0  9992,2 51965  53.0575 328.7752 0001731  93.2989 266.8197 15.04769779 91171,6930.349,95.696,553.414,551.015,0.0
51965.0,STARLINK-3696,PAYLOAD,2023-10-24 09:49:34,15.04774966,0.0001408,53.0551,326.0993,87.7523,272.3627,0.00011343,1.341e-05,0.0,0 STARLINK-3696,1 51965U 22025K   23297.40942313  .00001341  00000-0  11343-3 0  9990,2 51965  53.0551 326.0993 0001408  87.7523 272.3627 15.04774966 91260,6930.334,95.695,553.174,551.223,0.0
51965.0,STARLINK-3696,PAYLOAD,2023-10-25 11:19:51,15.04774417,0.0001391,53.0548,321.3403,88.7193,271.3955,0.00018303,2.333e-05,0.0,0 STARLINK-3696,1 51965U 22025K   23298.47212150  .00002333  00000-0  18303-3 0  9992,2 51965  53.0548 321.3403 0001391  88.7193 271.3955 15.04774417 91427,6930.335,95.695,553.164,551.236,0.0
51965.0,STARLINK-3696,PAYLOAD,2023-10-26 04:51:56,15.04767756,0.0001508,53.056,318.0688,89.4696,270.6465,-6.8869e-06,-3.75e-06,0.0,0 STARLINK-3696,1 51965U 22025K   23299.20273657 -.00000375  00000-0 -68869-5 0  9993,2 51965  53.0560 318.0688 0001508  89.4696 270.6465 15.04767756 91533,6930.356,95.696,553.266,551.176,0.0
51965.0,STARLINK-3696,PAYLOAD,2023-10-26 11:14:30,15.04774273,0.0001562,53.0555,316.8764,98.9699,261.1466,-2.2452e-05,-5.97e-06,0.0,0 STARLINK-3696,1 51965U 22025K   23299.46840661 -.00000597  00000-0 -22452-4 0  9999,2 51965  53.0555 316.8764 0001562  98.9699 261.1466 15.04774273 90487,6930.336,95.695,553.283,551.118,0.0
51965.0,STARLINK-3696,PAYLOAD,2023-10-27 07:57:51,15.04781695,0.0001501,53.0548,313.0107,91.0657,269.0503,9.6778e-05,1.103e-05,0.0,0 STARLINK-3696,1 51965U 22025K   23300.33184207  .00001103  00000-0  96778-4 0  9999,2 51965  53.0548 313.0107 0001501  91.0657 269.0503 15.04781695 91701,6930.313,95.695,553.218,551.138,0.0
51965.0,STARLINK-3696,PAYLOAD,2023-10-27 23:54:18,15.04762121,0.0001669,53.0556,310.0355,92.6283,267.4896,4.9106e-05,4.23e-06,0.0,0 STARLINK-3696,1 51965U 22025K   23300.99604450  .00000423  00000-0  49106-4 0  9995,2 51965  53.0556 310.0355 0001669  92.6283 267.4896 15.04762121 91800,6930.373,95.696,553.395,551.081,0.0
51965.0,STARLINK-3696,PAYLOAD,2023-10-28 07:52:31,15.0476249,0.0001541,53.0554,308.5495,86.9503,273.1662,7.7076e-06,-1.67e-06,0.0,0 STARLINK-3696,1 51965U 22025K   23301.32814111 -.00000167  00000-0  77076-5 0  9994,2 51965  53.0554 308.5495 0001541  86.9503 273.1662 15.04762490 90763,6930.372,95.696,553.305,551.169,0.0
51965.0,STARLINK-3696,PAYLOAD,2023-10-29 04:35:52,15.04772404,0.0001617,53.055,304.6823,84.9896,275.1277,4.3381e-05,3.41e-06,0.0,0 STARLINK-3696,1 51965U 22025K   23302.19158057  .00000341  00000-0  43381-4 0  9994,2 51965  53.0550 304.6823 0001617  84.9896 275.1277 15.04772404 91983,6930.341,95.696,553.327,551.086,0.0
51965.0,STARLINK-3696,PAYLOAD,2023-10-29 09:22:47,15.04781471,0.0001773,53.0544,303.7912,91.5591,268.56,0.00023773,3.114e-05,0.0,0 STARLINK-3696,1 51965U 22025K   23302.39083063  .00003114  00000-0  23773-3 0  9993,2 51965  53.0544 303.7912 0001773  91.5591 268.5600 15.04781471 92019,6930.314,95.695,553.407,550.95,0.0
51965.0,STARLINK-3696,PAYLOAD,2023-10-29 17:21:01,15.04767205,0.0001719,53.0546,302.3044,91.8225,268.2961,-2.0673e-05,-5.72e-06,0.0,0 STARLINK-3696,1 51965U 22025K   23302.72293005 -.00000572  00000-0 -20673-4 0  9993,2 51965  53.0546 302.3044 0001719  91.8225 268.2961 15.04767205 92060,6930.357,95.696,553.414,551.031,0.0
51965.0,STARLINK-3696,PAYLOAD,2023-10-30 04:30:31,15.04762961,0.0001851,53.0539,300.2226,90.8908,269.2292,0.00013302,1.619e-05,0.0,0 STARLINK-3696,1 51965U 22025K   23303.18786858  .00001619  00000-0  13302-3 0  9998,2 51965  53.0539 300.2226 0001851  90.8908 269.2292 15.04762961 92135,6930.37,95.696,553.518,550.953,0.0
51965.0,STARLINK-3696,PAYLOAD,2023-10-30 17:15:40,15.04763046,0.0001721,53.0533,297.8427,93.859,266.2595,9.6462e-05,1.098e-05,0.0,0 STARLINK-3696,1 51965U 22025K   23303.71921988  .00001098  00000-0  96462-4 0  9992,2 51965  53.0533 297.8427 0001721  93.8590 266.2595 15.04763046 91125,6930.37,95.696,553.428,551.042,0.0
51965.0,STARLINK-3696,PAYLOAD,2023-10-31 09:12:06,15.0477284,0.0001813,53.054,294.8676,98.3368,261.7826,0.00025623,3.378e-05,0.0,0 STARLINK-3696,1 51965U 22025K   23304.38340603  .00003378  00000-0  25623-3 0  9998,2 51965  53.0540 294.8676 0001813  98.3368 261.7826 15.04772840 92312,6930.34,95.696,553.462,550.949,0.0
51965.0,STARLINK-3696,PAYLOAD,2023-11-01 09:06:44,15.04779223,0.0001959,53.0547,290.4055,103.6584,256.4623,0.00038502,5.217e-05,0.0,0 STARLINK-3696,1 51965U 22025K   23305.37968540  .00005217  00000-0  38502-3 0  9998,2 51965  53.0547 290.4055 0001959 103.6584 256.4623 15.04779223 91376,6930.32,95.695,553.543,550.828,0.0
51965.0,STARLINK-3696,PAYLOAD,2023-11-02 04:14:27,15.04774109,0.0002172,53.0554,286.8337,119.3051,240.8155,0.00020883,2.701e-05,0.0,0 STARLINK-3696,1 51965U 22025K   23306.17671034  .00002701  00000-0  20883-3 0  9994,2 51965  53.0554 286.8337 0002172 119.3051 240.8155 15.04774109 92586,6930.336,95.695,553.706,550.696,0.0
51965.0,STARLINK-3696,PAYLOAD,2023-11-02 05:50:06,15.04775405,0.0001728,53.0544,286.5401,88.7438,271.3748,0.00021003,2.719e-05,0.0,0 STARLINK-3696,1 51965U 22025K   23306.24312967  .00002719  00000-0  21003-3 0  9993,2 51965  53.0544 286.5401 0001728  88.7438 271.3748 15.04775405 91506,6930.332,95.695,553.395,551.0,0.0
51965.0,STARLINK-3696,PAYLOAD,2023-11-02 15:23:57,15.04772643,0.0001692,53.0546,284.7567,87.9107,272.2075,0.00011422,1.352e-05,0.0,0 STARLINK-3696,1 51965U 22025K   23306.64164230  .00001352  00000-0  11422-3 0  9991,2 51965  53.0546 284.7567 0001692  87.9107 272.2075 15.04772643 91565,6930.341,95.696,553.378,551.033,0.0
51965.0,STARLINK-3696,PAYLOAD,2023-11-03 05:44:44,15.04783906,0.0001695,53.0546,282.0779,97.0904,263.0278,0.00031837,4.266e-05,0.0,0 STARLINK-3696,1 51965U 22025K   23307.23940443  .00004266  00000-0  31837-3 0  9994,2 51965  53.0546 282.0779 0001695  97.0904 263.0278 15.04783906 92749,6930.306,95.695,553.346,550.996,0.0
51965.0,STARLINK-3696,PAYLOAD,2023-11-03 21:41:10,15.04771194,0.0001705,53.0542,279.1066,100.1529,259.9651,0.00015703,1.962e-05,0.0,0 STARLINK-3696,1 51965U 22025K   23307.90359895  .00001962  00000-0  15703-3 0  9997,2 51965  53.0542 279.1066 0001705 100.1529 259.9651 15.04771194 91757,6930.345,95.696,553.392,551.028,0.0
51965.0,STARLINK-3696,PAYLOAD,2023-11-04 04:03:45,15.04768991,0.0001566,53.0541,277.9153,84.4356,275.6811,7.4308e-05,7.82e-06,0.0,0 STARLINK-3696,1 51965U 22025K   23308.16927476  .00000782  00000-0  74308-4 0  9998,2 51965  53.0541 277.9153 0001566  84.4356 275.6811 15.04768991 92885,6930.352,95.696,553.302,551.132,0.0
51965.0,STARLINK-3696,PAYLOAD,2023-11-04 07:15:02,15.04772331,0.0001569,53.054,277.32,87.336,272.7808,0.00014417,1.779e-05,0.0,0 STARLINK-3696,1 51965U 22025K   23308.30211071  .00001779  00000-0  14417-3 0  9992,2 51965  53.0540 277.3200 0001569  87.3360 272.7808 15.04772331 91810,6930.342,95.696,553.294,551.119,0.0
51965.0,STARLINK-3696,PAYLOAD,2023-11-04 15:13:15,15.04762047,0.000163,53.0546,275.8344,86.1732,273.9443,-2.2549e-05,-5.99e-06,0.0,0 STARLINK-3696,1 51965U 22025K   23308.63421068 -.00000599  00000-0 -22549-4 0  9994,2 51965  53.0546 275.8344 0001630  86.1732 273.9443 15.04762047 92954,6930.373,95.696,553.368,551.109,0.0
51965.0,STARLINK-3696,PAYLOAD,2023-11-05 03:58:23,15.04778145,0.0001522,53.0542,273.4547,92.0589,268.0574,0.00032794,4.402e-05,0.0,0 STARLINK-3696,1 51965U 22025K   23309.16555454  .00004402  00000-0  32794-3 0  9997,2 51965  53.0542 273.4547 0001522  92.0589 268.0574 15.04778145 93031,6930.324,95.695,553.244,551.134,0.0
51965.0,STARLINK-3696,PAYLOAD,2023-11-05 15:07:54,15.04774217,0.0001403,53.0541,271.3729,85.8828,274.232,0.00028714,3.819e-05,0.0,0 STARLINK-3696,1 51965U 22025K   23309.63048744  .00003819  00000-0  28714-3 0  9996,2 51965  53.0541 271.3729 0001403  85.8828 274.2320 15.04774217 93105,6930.336,95.695,553.173,551.229,0.0
51965.0,STARLINK-3696,PAYLOAD,2023-11-06 03:53:01,15.04809616,0.0001563,53.0542,268.9919,87.18,272.9367,0.00093824,0.00013138,0.0,0 STARLINK-3696,1 51965U 22025K   23310.16182102  .00013138  00000-0  93824-3 0  9992,2 51965  53.0542 268.9919 0001563  87.1800 272.9367 15.04809616 93187,6930.227,95.693,553.175,551.009,0.0
51965.0,STARLINK-3696,PAYLOAD,2023-11-07 03:47:41,15.04749535,0.0001337,53.0538,264.5305,107.0803,253.0331,-0.00058527,-8.606e-05,0.0,0 STARLINK-3696,1 51965U 22025K   23311.15811860 -.00008606  00000-0 -58527-3 0  9999,2 51965  53.0538 264.5305 0001337 107.0803 253.0331 15.04749535 93338,6930.412,95.697,553.203,551.35,0.0
